OBJECT_NAME,OBJECT_ID,EPOCH,MEAN_MOTION,ECCENTRICITY,INCLINATION,RA_OF_ASC_NODE,ARG_OF_PERICENTER,MEAN_ANOMALY,EPHEMERIS_TYPE,CLASSIFICATION_TYPE,NORAD_CAT_ID,ELEMENT_SET_NO,REV_AT_EPOCH,BSTAR,MEAN_MOTION_DOT,MEAN_MOTION_DDOT
SIRION PATHFINDER-2,2018-099B,2026-06-25T02:38:05.998560,15.14612741,.00070379,97.4252,224.9788,271.1820,88.8606,0,U,43759,999,41382,.28033225E-3,.5115E-4,0
CORVUS BC4,2018-099K,2026-06-25T01:27:47.528928,15.12550622,.00074144,97.4067,218.8103,345.1206,14.9806,0,U,43767,999,41359,.2802241E-3,.4825E-4,0
M2 PATHFINDER,2020-037E,2026-06-24T18:15:45.190944,15.04699208,.00125897,97.8139,7.0774,124.1898,236.0522,0,U,45727,999,32663,.14608191E-3,.1995E-4,0
NETSAT-4,2020-068U,2026-06-25T06:58:44.916960,15.44113084,.00031902,97.8604,185.1833,294.6586,65.4329,0,U,46504,999,31702,.46351124E-3,.21143E-3,0
NETSAT-3,2020-068V,2026-06-24T23:29:45.322656,15.42921449,.00032103,97.8656,183.0533,325.8929,34.2111,0,U,46505,999,31688,.4525606E-3,.19826E-3,0
NETSAT-1,2020-068W,2026-06-25T06:51:01.262592,15.34812304,.00040306,97.8743,177.6191,6.0952,354.0338,0,U,46506,999,31654,.44192315E-3,.14843E-3,0
NETSAT-2,2020-068X,2026-06-24T23:54:07.869024,15.46304721,.00022626,97.8619,184.7880,358.7452,1.3790,0,U,46507,999,31694,.50418636E-3,.24801E-3,0
GREENCUBE (IO-117),2022-080E,2026-06-23T17:18:16.788960,6.42583215,.00089266,70.1445,295.9726,288.1418,71.8270,0,U,53109,999,9248,0,-.3E-7,0
SITRO-AIS 5 (KATYS),2023-091L,2026-06-25T05:56:38.402016,15.29625984,.00125373,97.5062,240.2238,78.5151,281.7497,0,U,57176,999,16557,.54259918E-3,.15551E-3,0
SITRO-AIS 6 (CHIRKIN),2023-091AC,2026-06-25T05:53:11.785920,15.26075303,.00129372,97.5070,239.2977,81.6119,278.6585,0,U,57192,999,16551,.49990993E-3,.12849E-3,0
SITRO-AIS 8 (ANOKHIN),2023-091AD,2026-06-25T06:00:45.587232,15.32334650,.00114904,97.5059,241.8484,74.9508,285.3004,0,U,57193,999,16568,.5420824E-3,.16896E-3,0
SITRO-AIS 7 (FARTUSHNIY),2023-091AE,2026-06-25T06:00:06.777216,15.25760504,.00128096,97.5067,239.1233,82.5023,277.7670,0,U,57194,999,16550,.51800868E-3,.13191E-3,0
SITRO-AIS 10 (BURDAEV),2023-091AK,2026-06-25T05:57:04.056768,15.38894200,.00068807,97.5083,246.9838,55.4658,304.7236,0,U,57199,999,16600,.65467173E-3,.25178E-3,0
SITRO-AIS 9 (SHCHUKIN),2023-091AM,2026-06-25T06:38:49.083072,15.38394481,.00071244,97.5082,246.7370,55.5520,304.6397,0,U,57201,999,16599,.65854104E-3,.24919E-3,0
SITRO-AIS 12 (SMIRENNIY),2023-091AQ,2026-06-25T06:23:05.511264,15.38688675,.00066293,97.5095,247.1980,50.5035,309.6795,0,U,57204,999,16601,.63315941E-3,.24181E-3,0
SITRO-AIS 11 (SHEFFER),2023-091AU,2026-06-25T05:05:33.612576,15.39114196,.00065365,97.5092,247.3947,50.4506,309.7316,0,U,57208,999,16602,.63878495E-3,.24739E-3,0
SITRO-AIS 25,2024-039R,2026-06-25T06:46:00.809184,14.93549685,.01426508,95.3910,240.6552,300.1495,58.5659,0,U,59066,999,12593,.18311989E-3,.2321E-4,0
SITRO-AIS 26,2024-039S,2026-06-25T06:49:35.025024,14.93344509,.01430217,95.3910,240.5528,300.7442,57.9762,0,U,59067,999,12592,.18253704E-3,.2302E-4,0
SITRO-AIS 27,2024-039T,2026-06-25T07:39:56.128032,14.93764470,.01420032,95.3910,240.8521,299.1651,59.5427,0,U,59068,999,12595,.24209941E-3,.3093E-4,0
SITRO-AIS 28,2024-039U,2026-06-25T07:07:10.953120,14.93797381,.01419751,95.3911,240.8844,299.0890,59.6181,0,U,59071,999,12595,.19075523E-3,.2431E-4,0
GRBBETA,2024-128C,2026-06-25T06:00:42.857856,15.06681850,.0039608,61.9880,187.9748,136.3601,224.0636,0,U,60237,999,10748,.23359289E-3,.3326E-4,0
OOV-CUBE (TUBSAT-30),2024-128F,2026-06-25T05:45:10.264032,15.02799943,.0043634,61.9924,197.4933,135.5626,224.8979,0,U,60240,999,10732,.13343614E-3,.1615E-4,0
ROBUSTA-3A (MEDITERRANEE),2024-128J,2026-06-24T17:47:56.002560,15.11735460,.00403168,61.9846,181.5272,129.6556,230.8108,0,U,60243,999,10756,.26284569E-3,.4361E-4,0
LASARSAT,2024-247Q,2026-06-25T07:23:59.052768,15.46808712,.00072601,44.9730,216.5647,20.4050,339.7129,0,U,62391,999,8457,.71236207E-3,.36383E-3,0
CROCUBE,2024-247T,2026-06-24T09:26:02.551776,15.48681185,.00072263,44.9701,218.9251,18.8099,341.3058,0,U,62394,999,8446,.56516968E-3,.30725E-3,0
FORESAIL-1 PRIME,2025-276DS,2026-06-25T03:59:44.374848,15.18766994,.00039274,97.4202,249.2913,87.1697,272.9986,0,U,66778,999,3161,.25842125E-3,.5305E-4,0
KNACKSAT-2,1998-067XZ,2026-06-24T11:02:13.025472,15.60565683,.00087227,51.6280,257.8789,247.7542,112.2526,0,U,67683,999,2141,.5112383E-3,.4284E-3,0
