[{"id":"43759","name":"SIRION PATHFINDER-2","tle1":"1 43759U 18099B   26176.10979165  .00005115  00000+0  28033-3 0  9995","tle2":"2 43759  97.4252 224.9788 0007037 271.1820  88.8606 15.14612741413823"},{"id":"43767","name":"CORVUS BC4","tle1":"1 43767U 18099K   26176.06096677  .00004825  00000+0  28022-3 0  9992","tle2":"2 43767  97.4067 218.8103 0007414 345.1206  14.9806 15.12550622413591"},{"id":"45727","name":"M2 PATHFINDER","tle1":"1 45727U 20037E   26175.76093971  .00001995  00000+0  14608-3 0  9995","tle2":"2 45727  97.8139   7.0774 0012589 124.1898 236.0522 15.04699208326631"},{"id":"46504","name":"NETSAT-4","tle1":"1 46504U 20068U   26176.29079765  .00021143  00000+0  46351-3 0  9994","tle2":"2 46504  97.8604 185.1833 0003190 294.6586  65.4329 15.44113084317020"},{"id":"46505","name":"NETSAT-3","tle1":"1 46505U 20068V   26175.97899679  .00019826  00000+0  45256-3 0  9991","tle2":"2 46505  97.8656 183.0533 0003210 325.8929  34.2111 15.42921449316889"},{"id":"46506","name":"NETSAT-1","tle1":"1 46506U 20068W   26176.28543128  .00014843  00000+0  44192-3 0  9994","tle2":"2 46506  97.8743 177.6191 0004030   6.0952 354.0338 15.34812304316548"},{"id":"46507","name":"NETSAT-2","tle1":"1 46507U 20068X   26175.99592441  .00024801  00000+0  50419-3 0  9998","tle2":"2 46507  97.8619 184.7880 0002262 358.7452   1.3790 15.46304721316942"},{"id":"53109","name":"GREENCUBE (IO-117)","tle1":"1 53109U 22080E   26174.72102765 -.00000003  00000+0  00000+0 0  9992","tle2":"2 53109  70.1445 295.9726 0008926 288.1418  71.8270  6.42583215 92482"},{"id":"57176","name":"SITRO-AIS 5 (KATYS)","tle1":"1 57176U 23091L   26176.24766669  .00015551  00000+0  54260-3 0  9995","tle2":"2 57176  97.5062 240.2238 0012537  78.5151 281.7497 15.29625984165576"},{"id":"57192","name":"SITRO-AIS 6 (CHIRKIN)","tle1":"1 57192U 23091AC  26176.24527530  .00012849  00000+0  49991-3 0  9997","tle2":"2 57192  97.5070 239.2977 0012937  81.6119 278.6585 15.26075303165512"},{"id":"57193","name":"SITRO-AIS 8 (ANOKHIN)","tle1":"1 57193U 23091AD  26176.25052763  .00016896  00000+0  54208-3 0  9993","tle2":"2 57193  97.5059 241.8484 0011490  74.9508 285.3004 15.32334650165681"},{"id":"57194","name":"SITRO-AIS 7 (FARTUSHNIY)","tle1":"1 57194U 23091AE  26176.25007844  .00013191  00000+0  51801-3 0  9995","tle2":"2 57194  97.5067 239.1233 0012809  82.5023 277.7670 15.25760504165503"},{"id":"57199","name":"SITRO-AIS 10 (BURDAEV)","tle1":"1 57199U 23091AK  26176.24796362  .00025178  00000+0  65467-3 0  9990","tle2":"2 57199  97.5083 246.9838 0006880  55.4658 304.7236 15.38894200166008"},{"id":"57201","name":"SITRO-AIS 9 (SHCHUKIN)","tle1":"1 57201U 23091AM  26176.27695698  .00024919  00000+0  65854-3 0  9999","tle2":"2 57201  97.5082 246.7370 0007124  55.5520 304.6397 15.38394481165991"},{"id":"57204","name":"SITRO-AIS 12 (SMIRENNIY)","tle1":"1 57204U 23091AQ  26176.26603601  .00024181  00000+0  63316-3 0  9996","tle2":"2 57204  97.5095 247.1980 0006629  50.5035 309.6795 15.38688675166017"},{"id":"57208","name":"SITRO-AIS 11 (SHEFFER)","tle1":"1 57208U 23091AU  26176.21219459  .00024739  00000+0  63878-3 0  9991","tle2":"2 57208  97.5092 247.3947 0006536  50.4506 309.7316 15.39114196166026"},{"id":"59066","name":"SITRO-AIS 25","tle1":"1 59066U 24039R   26176.28195381  .00002321  00000+0  18312-3 0  9998","tle2":"2 59066  95.3910 240.6552 0142650 300.1495  58.5659 14.93549685125931"},{"id":"59067","name":"SITRO-AIS 26","tle1":"1 59067U 24039S   26176.28443316  .00002302  00000+0  18254-3 0  9997","tle2":"2 59067  95.3910 240.5528 0143021 300.7442  57.9762 14.93344509125920"},{"id":"59068","name":"SITRO-AIS 27","tle1":"1 59068U 24039T   26176.31939963  .00003093  00000+0  24210-3 0  9997","tle2":"2 59068  95.3910 240.8521 0142003 299.1651  59.5427 14.93764470125951"},{"id":"59071","name":"SITRO-AIS 28","tle1":"1 59071U 24039U   26176.29665455  .00002431  00000+0  19076-3 0  9999","tle2":"2 59071  95.3911 240.8844 0141975 299.0890  59.6181 14.93797381125950"},{"id":"60237","name":"GRBBETA","tle1":"1 60237U 24128C   26176.25049604  .00003326  00000+0  23359-3 0  9995","tle2":"2 60237  61.9880 187.9748 0039608 136.3601 224.0636 15.06681850107485"},{"id":"60240","name":"OOV-CUBE (TUBSAT-30)","tle1":"1 60240U 24128F   26176.23970213  .00001615  00000+0  13344-3 0  9998","tle2":"2 60240  61.9924 197.4933 0043634 135.5626 224.8979 15.02799943107322"},{"id":"60243","name":"ROBUSTA-3A (MEDITERRAN*)","tle1":"1 60243U 24128J   26175.74162040  .00004361  00000+0  26285-3 0  9996","tle2":"2 60243  61.9846 181.5272 0040316 129.6556 230.8108 15.11735460107569"},{"id":"62391","name":"LASARSAT","tle1":"1 62391U 24247Q   26176.30832237  .00036383  00000+0  71236-3 0  9994","tle2":"2 62391  44.9730 216.5647 0007260  20.4050 339.7129 15.46808712 84577"},{"id":"62394","name":"CROCUBE","tle1":"1 62394U 24247T   26175.39308509  .00030725  00000+0  56517-3 0  9994","tle2":"2 62394  44.9701 218.9251 0007226  18.8099 341.3058 15.48681185 84464"},{"id":"66778","name":"FORESAIL-1 PRIME","tle1":"1 66778U 25276DS  26176.16648582  .00005305  00000+0  25842-3 0  9994","tle2":"2 66778  97.4202 249.2913 0003927  87.1697 272.9986 15.18766994 31619"},{"id":"67683","name":"KNACKSAT-2","tle1":"1 67683U 98067XZ  26175.45987298  .00042840  00000+0  51124-3 0  9996","tle2":"2 67683  51.6280 257.8789 0008722 247.7542 112.2526 15.60565683 21412"}]